{
"type": "FeatureCollection",
"name": "west-bengal-rto",
"crs": { "type": "name", "properties": { "name": "urn:ogc:def:crs:OGC:1.3:CRS84" } },
"features": [
{ "type": "Feature", "properties": { "RTO": "Alipore", "Lat": 22.539171, "Long": 88.327278, "erickshaw_total_registered": 2, "E4W_total_registered": 112, "E2W_total_registered": 1970 }, "geometry": { "type": "Point", "coordinates": [ 88.327278, 22.539171 ] } },
{ "type": "Feature", "properties": { "RTO": "Alipurduar", "Lat": 26.489, "Long": 89.527, "erickshaw_total_registered": 888, "E4W_total_registered": 4, "E2W_total_registered": 225 }, "geometry": { "type": "Point", "coordinates": [ 89.527, 26.489 ] } },
{ "type": "Feature", "properties": { "RTO": "Arambagh", "Lat": 22.88, "Long": 87.78, "erickshaw_total_registered": 379, "E4W_total_registered": 14, "E2W_total_registered": 143 }, "geometry": { "type": "Point", "coordinates": [ 87.78, 22.88 ] } },
{ "type": "Feature", "properties": { "RTO": "Bangaon", "Lat": 23.07, "Long": 88.82, "erickshaw_total_registered": 1108, "E4W_total_registered": 0, "E2W_total_registered": 62 }, "geometry": { "type": "Point", "coordinates": [ 88.82, 23.07 ] } },
{ "type": "Feature", "properties": { "RTO": "Bankura", "Lat": 23.25, "Long": 87.07, "erickshaw_total_registered": 1678, "E4W_total_registered": 27, "E2W_total_registered": 438 }, "geometry": { "type": "Point", "coordinates": [ 87.07, 23.25 ] } },
{ "type": "Feature", "properties": { "RTO": "Barasat", "Lat": 22.72, "Long": 88.48, "erickshaw_total_registered": 7411, "E4W_total_registered": 224, "E2W_total_registered": 1901 }, "geometry": { "type": "Point", "coordinates": [ 88.48, 22.72 ] } },
{ "type": "Feature", "properties": { "RTO": "Barrackpore", "Lat": 22.76, "Long": 88.37, "erickshaw_total_registered": 1930, "E4W_total_registered": 170, "E2W_total_registered": 1166 }, "geometry": { "type": "Point", "coordinates": [ 88.37, 22.76 ] } },
{ "type": "Feature", "properties": { "RTO": "Baruipur", "Lat": 22.365443, "Long": 88.432503, "erickshaw_total_registered": 75, "E4W_total_registered": 25, "E2W_total_registered": 709 }, "geometry": { "type": "Point", "coordinates": [ 88.432503, 22.365443 ] } },
{ "type": "Feature", "properties": { "RTO": "Basirhat", "Lat": 22.657222, "Long": 88.894167, "erickshaw_total_registered": 1735, "E4W_total_registered": 2, "E2W_total_registered": 226 }, "geometry": { "type": "Point", "coordinates": [ 88.894167, 22.657222 ] } },
{ "type": "Feature", "properties": { "RTO": "Behala", "Lat": 22.4981, "Long": 88.3108, "erickshaw_total_registered": 0, "E4W_total_registered": 135, "E2W_total_registered": 1009 }, "geometry": { "type": "Point", "coordinates": [ 88.3108, 22.4981 ] } },
{ "type": "Feature", "properties": { "RTO": "Birbhum", "Lat": 23.91, "Long": 87.527, "erickshaw_total_registered": 282, "E4W_total_registered": 23, "E2W_total_registered": 464 }, "geometry": { "type": "Point", "coordinates": [ 87.527, 23.91 ] } },
{ "type": "Feature", "properties": { "RTO": "Bishnupur", "Lat": 23.075, "Long": 87.317, "erickshaw_total_registered": 52, "E4W_total_registered": 6, "E2W_total_registered": 86 }, "geometry": { "type": "Point", "coordinates": [ 87.317, 23.075 ] } },
{ "type": "Feature", "properties": { "RTO": "Bolpur", "Lat": 23.67, "Long": 87.72, "erickshaw_total_registered": 150, "E4W_total_registered": 12, "E2W_total_registered": 201 }, "geometry": { "type": "Point", "coordinates": [ 87.72, 23.67 ] } },
{ "type": "Feature", "properties": { "RTO": "Chanchal", "Lat": 25.39, "Long": 87.99, "erickshaw_total_registered": 1235, "E4W_total_registered": 3, "E2W_total_registered": 44 }, "geometry": { "type": "Point", "coordinates": [ 87.99, 25.39 ] } },
{ "type": "Feature", "properties": { "RTO": "Contai", "Lat": 21.78, "Long": 87.75, "erickshaw_total_registered": 65, "E4W_total_registered": 15, "E2W_total_registered": 887 }, "geometry": { "type": "Point", "coordinates": [ 87.75, 21.78 ] } },
{ "type": "Feature", "properties": { "RTO": "Cooch Behar", "Lat": 26.32419, "Long": 89.451, "erickshaw_total_registered": 2920, "E4W_total_registered": 15, "E2W_total_registered": 638 }, "geometry": { "type": "Point", "coordinates": [ 89.451, 26.32419 ] } },
{ "type": "Feature", "properties": { "RTO": "Dakshin Dinajpur", "Lat": 25.383333, "Long": 88.566667, "erickshaw_total_registered": 3907, "E4W_total_registered": 5, "E2W_total_registered": 381 }, "geometry": { "type": "Point", "coordinates": [ 88.566667, 25.383333 ] } },
{ "type": "Feature", "properties": { "RTO": "Darjeeling", "Lat": 27.0375, "Long": 88.263056, "erickshaw_total_registered": 0, "E4W_total_registered": 2, "E2W_total_registered": 0 }, "geometry": { "type": "Point", "coordinates": [ 88.263056, 27.0375 ] } },
{ "type": "Feature", "properties": { "RTO": "Diamond Harbour", "Lat": 22.191009, "Long": 88.190474, "erickshaw_total_registered": 39, "E4W_total_registered": 8, "E2W_total_registered": 468 }, "geometry": { "type": "Point", "coordinates": [ 88.190474, 22.191009 ] } },
{ "type": "Feature", "properties": { "RTO": "Durgapur", "Lat": 23.55, "Long": 87.32, "erickshaw_total_registered": 448, "E4W_total_registered": 122, "E2W_total_registered": 1450 }, "geometry": { "type": "Point", "coordinates": [ 87.32, 23.55 ] } },
{ "type": "Feature", "properties": { "RTO": "Ghatal", "Lat": 22.67, "Long": 87.72, "erickshaw_total_registered": 2, "E4W_total_registered": 4, "E2W_total_registered": 1953 }, "geometry": { "type": "Point", "coordinates": [ 87.72, 22.67 ] } },
{ "type": "Feature", "properties": { "RTO": "Haldia", "Lat": 22.0667, "Long": 88.0698, "erickshaw_total_registered": 0, "E4W_total_registered": 5, "E2W_total_registered": 261 }, "geometry": { "type": "Point", "coordinates": [ 88.0698, 22.0667 ] } },
{ "type": "Feature", "properties": { "RTO": "Hoogly", "Lat": 22.9, "Long": 88.39, "erickshaw_total_registered": 1996, "E4W_total_registered": 96, "E2W_total_registered": 1117 }, "geometry": { "type": "Point", "coordinates": [ 88.39, 22.9 ] } },
{ "type": "Feature", "properties": { "RTO": "Howra", "Lat": 22.58, "Long": 88.329444, "erickshaw_total_registered": 1735, "E4W_total_registered": 255, "E2W_total_registered": 1745 }, "geometry": { "type": "Point", "coordinates": [ 88.329444, 22.58 ] } },
{ "type": "Feature", "properties": { "RTO": "Islampur", "Lat": 26.27, "Long": 88.2, "erickshaw_total_registered": 66, "E4W_total_registered": 1, "E2W_total_registered": 39 }, "geometry": { "type": "Point", "coordinates": [ 88.2, 26.27 ] } },
{ "type": "Feature", "properties": { "RTO": "Jalpaiguri", "Lat": 26.52, "Long": 88.73, "erickshaw_total_registered": 402, "E4W_total_registered": 27, "E2W_total_registered": 290 }, "geometry": { "type": "Point", "coordinates": [ 88.73, 26.52 ] } },
{ "type": "Feature", "properties": { "RTO": "Jangipur", "Lat": 24.4691, "Long": 88.1032, "erickshaw_total_registered": 766, "E4W_total_registered": 6, "E2W_total_registered": 67 }, "geometry": { "type": "Point", "coordinates": [ 88.1032, 24.4691 ] } },
{ "type": "Feature", "properties": { "RTO": "Jhargram", "Lat": 22.45, "Long": 86.89, "erickshaw_total_registered": 62, "E4W_total_registered": 9, "E2W_total_registered": 195 }, "geometry": { "type": "Point", "coordinates": [ 86.89, 22.45 ] } },
{ "type": "Feature", "properties": { "RTO": "Kalimpong", "Lat": 27.06, "Long": 88.47, "erickshaw_total_registered": 0, "E4W_total_registered": 3, "E2W_total_registered": 4 }, "geometry": { "type": "Point", "coordinates": [ 88.47, 27.06 ] } },
{ "type": "Feature", "properties": { "RTO": "Kalna", "Lat": 23.22, "Long": 88.37, "erickshaw_total_registered": 4, "E4W_total_registered": 4, "E2W_total_registered": 98 }, "geometry": { "type": "Point", "coordinates": [ 88.37, 23.22 ] } },
{ "type": "Feature", "properties": { "RTO": "Kalyani", "Lat": 22.975, "Long": 88.434444, "erickshaw_total_registered": 154, "E4W_total_registered": 22, "E2W_total_registered": 182 }, "geometry": { "type": "Point", "coordinates": [ 88.434444, 22.975 ] } },
{ "type": "Feature", "properties": { "RTO": "Kandi", "Lat": 23.95, "Long": 88.03, "erickshaw_total_registered": 0, "E4W_total_registered": 0, "E2W_total_registered": 1 }, "geometry": { "type": "Point", "coordinates": [ 88.03, 23.95 ] } },
{ "type": "Feature", "properties": { "RTO": "Kasba", "Lat": 22.5167, "Long": 88.384, "erickshaw_total_registered": 0, "E4W_total_registered": 548, "E2W_total_registered": 1685 }, "geometry": { "type": "Point", "coordinates": [ 88.384, 22.5167 ] } },
{ "type": "Feature", "properties": { "RTO": "Katwa", "Lat": 23.65, "Long": 88.13, "erickshaw_total_registered": 40, "E4W_total_registered": 7, "E2W_total_registered": 151 }, "geometry": { "type": "Point", "coordinates": [ 88.13, 23.65 ] } },
{ "type": "Feature", "properties": { "RTO": "Kharagpur", "Lat": 22.330239, "Long": 87.323653, "erickshaw_total_registered": 782, "E4W_total_registered": 22, "E2W_total_registered": 331 }, "geometry": { "type": "Point", "coordinates": [ 87.323653, 22.330239 ] } },
{ "type": "Feature", "properties": { "RTO": "Kolkata", "Lat": 22.5675, "Long": 88.37, "erickshaw_total_registered": 3, "E4W_total_registered": 1659, "E2W_total_registered": 1571 }, "geometry": { "type": "Point", "coordinates": [ 88.37, 22.5675 ] } },
{ "type": "Feature", "properties": { "RTO": "Malda", "Lat": 25.0119, "Long": 88.1433, "erickshaw_total_registered": 6646, "E4W_total_registered": 18, "E2W_total_registered": 300 }, "geometry": { "type": "Point", "coordinates": [ 88.1433, 25.0119 ] } },
{ "type": "Feature", "properties": { "RTO": "Mathabhanga", "Lat": 26.33, "Long": 89.22, "erickshaw_total_registered": 130, "E4W_total_registered": 11, "E2W_total_registered": 71 }, "geometry": { "type": "Point", "coordinates": [ 89.22, 26.33 ] } },
{ "type": "Feature", "properties": { "RTO": "Murshidabad", "Lat": 24.18, "Long": 88.27, "erickshaw_total_registered": 2696, "E4W_total_registered": 34, "E2W_total_registered": 699 }, "geometry": { "type": "Point", "coordinates": [ 88.27, 24.18 ] } },
{ "type": "Feature", "properties": { "RTO": "Nadia", "Lat": 23.483333, "Long": 88.533333, "erickshaw_total_registered": 808, "E4W_total_registered": 27, "E2W_total_registered": 971 }, "geometry": { "type": "Point", "coordinates": [ 88.533333, 23.483333 ] } },
{ "type": "Feature", "properties": { "RTO": "Paschim Bardhaman", "Lat": 23.68, "Long": 86.99, "erickshaw_total_registered": 567, "E4W_total_registered": 120, "E2W_total_registered": 1431 }, "geometry": { "type": "Point", "coordinates": [ 86.99, 23.68 ] } },
{ "type": "Feature", "properties": { "RTO": "Paschim Midnapore", "Lat": 22.424, "Long": 87.319, "erickshaw_total_registered": 316, "E4W_total_registered": 42, "E2W_total_registered": 959 }, "geometry": { "type": "Point", "coordinates": [ 87.319, 22.424 ] } },
{ "type": "Feature", "properties": { "RTO": "Purba Bardhaman", "Lat": 23.233333, "Long": 87.866667, "erickshaw_total_registered": 2211, "E4W_total_registered": 50, "E2W_total_registered": 754 }, "geometry": { "type": "Point", "coordinates": [ 87.866667, 23.233333 ] } },
{ "type": "Feature", "properties": { "RTO": "Purulia", "Lat": 23.34, "Long": 86.36, "erickshaw_total_registered": 3720, "E4W_total_registered": 14, "E2W_total_registered": 354 }, "geometry": { "type": "Point", "coordinates": [ 86.36, 23.34 ] } },
{ "type": "Feature", "properties": { "RTO": "Raghunathpur", "Lat": 23.55, "Long": 86.67, "erickshaw_total_registered": 239, "E4W_total_registered": 3, "E2W_total_registered": 163 }, "geometry": { "type": "Point", "coordinates": [ 86.67, 23.55 ] } },
{ "type": "Feature", "properties": { "RTO": "Rampurhat", "Lat": 24.17, "Long": 87.78, "erickshaw_total_registered": 251, "E4W_total_registered": 8, "E2W_total_registered": 252 }, "geometry": { "type": "Point", "coordinates": [ 87.78, 24.17 ] } },
{ "type": "Feature", "properties": { "RTO": "Salt Lake", "Lat": 22.58, "Long": 88.42, "erickshaw_total_registered": 0, "E4W_total_registered": 555, "E2W_total_registered": 983 }, "geometry": { "type": "Point", "coordinates": [ 88.42, 22.58 ] } },
{ "type": "Feature", "properties": { "RTO": "Siliguri", "Lat": 26.71, "Long": 88.43, "erickshaw_total_registered": 3706, "E4W_total_registered": 123, "E2W_total_registered": 1726 }, "geometry": { "type": "Point", "coordinates": [ 88.43, 26.71 ] } },
{ "type": "Feature", "properties": { "RTO": "Srirampur", "Lat": 22.75, "Long": 88.34, "erickshaw_total_registered": 746, "E4W_total_registered": 65, "E2W_total_registered": 390 }, "geometry": { "type": "Point", "coordinates": [ 88.34, 22.75 ] } },
{ "type": "Feature", "properties": { "RTO": "Tamluk", "Lat": 22.3, "Long": 87.92, "erickshaw_total_registered": 14, "E4W_total_registered": 26, "E2W_total_registered": 887 }, "geometry": { "type": "Point", "coordinates": [ 87.92, 22.3 ] } },
{ "type": "Feature", "properties": { "RTO": "Tehatta", "Lat": 23.7, "Long": 88.55, "erickshaw_total_registered": 0, "E4W_total_registered": 1, "E2W_total_registered": 8 }, "geometry": { "type": "Point", "coordinates": [ 88.55, 23.7 ] } },
{ "type": "Feature", "properties": { "RTO": "Uluberia", "Lat": 22.47, "Long": 88.11, "erickshaw_total_registered": 0, "E4W_total_registered": 22, "E2W_total_registered": 399 }, "geometry": { "type": "Point", "coordinates": [ 88.11, 22.47 ] } },
{ "type": "Feature", "properties": { "RTO": "Uttar Dinajpur", "Lat": 25.62, "Long": 88.12, "erickshaw_total_registered": 983, "E4W_total_registered": 8, "E2W_total_registered": 214 }, "geometry": { "type": "Point", "coordinates": [ 88.12, 25.62 ] } }
]
}
