{
"type": "FeatureCollection",
"name": "west-bengal-rto-threewheeler",
"crs": { "type": "name", "properties": { "name": "urn:ogc:def:crs:OGC:1.3:CRS84" } },
"features": [
{ "type": "Feature", "properties": { "RTO": "Alipore", "District": "Kolkata", "Lat": 22.539171, "Long": 88.327278, "e-rickshaw": 2, "E3W_passenger": 319, "E3W_goods": 439, "ICE3W_passenger": 15745 }, "geometry": { "type": "Point", "coordinates": [ 88.327278, 22.539171 ] } },
{ "type": "Feature", "properties": { "RTO": "Alipurduar", "District": "Alipurduar", "Lat": 26.489, "Long": 89.527, "e-rickshaw": 1121, "E3W_passenger": 1013, "E3W_goods": 52, "ICE3W_passenger": 1656 }, "geometry": { "type": "Point", "coordinates": [ 89.527, 26.489 ] } },
{ "type": "Feature", "properties": { "RTO": "Arambagh", "District": "Hugli", "Lat": 22.88, "Long": 87.78, "e-rickshaw": 385, "E3W_passenger": 0, "E3W_goods": 4, "ICE3W_passenger": 163 }, "geometry": { "type": "Point", "coordinates": [ 87.78, 22.88 ] } },
{ "type": "Feature", "properties": { "RTO": "Bangaon", "District": "North Twenty Four Parganas", "Lat": 23.07, "Long": 88.82, "e-rickshaw": 1136, "E3W_passenger": 14, "E3W_goods": 2, "ICE3W_passenger": 695 }, "geometry": { "type": "Point", "coordinates": [ 88.82, 23.07 ] } },
{ "type": "Feature", "properties": { "RTO": "Bankura", "District": "Bankura", "Lat": 23.25, "Long": 87.07, "e-rickshaw": 1687, "E3W_passenger": 20, "E3W_goods": 5, "ICE3W_passenger": 423 }, "geometry": { "type": "Point", "coordinates": [ 87.07, 23.25 ] } },
{ "type": "Feature", "properties": { "RTO": "Barasat", "District": "North Twenty Four Parganas", "Lat": 22.72, "Long": 88.48, "e-rickshaw": 7655, "E3W_passenger": 80, "E3W_goods": 592, "ICE3W_passenger": 16668 }, "geometry": { "type": "Point", "coordinates": [ 88.48, 22.72 ] } },
{ "type": "Feature", "properties": { "RTO": "Barrackpore", "District": "North Twenty Four Parganas", "Lat": 22.76, "Long": 88.37, "e-rickshaw": 1938, "E3W_passenger": 5, "E3W_goods": 125, "ICE3W_passenger": 10 }, "geometry": { "type": "Point", "coordinates": [ 88.37, 22.76 ] } },
{ "type": "Feature", "properties": { "RTO": "Baruipur", "District": "South Twenty Four Parganas", "Lat": 22.365443, "Long": 88.432503, "e-rickshaw": 96, "E3W_passenger": 19, "E3W_goods": 11, "ICE3W_passenger": 11202 }, "geometry": { "type": "Point", "coordinates": [ 88.432503, 22.365443 ] } },
{ "type": "Feature", "properties": { "RTO": "Basirhat", "District": "North Twenty Four Parganas", "Lat": 22.657222, "Long": 88.894167, "e-rickshaw": 2676, "E3W_passenger": 8, "E3W_goods": 4, "ICE3W_passenger": 719 }, "geometry": { "type": "Point", "coordinates": [ 88.894167, 22.657222 ] } },
{ "type": "Feature", "properties": { "RTO": "Behala", "District": "South Twenty Four Parganas", "Lat": 22.4981, "Long": 88.3108, "e-rickshaw": 0, "E3W_passenger": 0, "E3W_goods": 5, "ICE3W_passenger": 47 }, "geometry": { "type": "Point", "coordinates": [ 88.3108, 22.4981 ] } },
{ "type": "Feature", "properties": { "RTO": "Birbhum", "District": "Birbhum", "Lat": 23.91, "Long": 87.527, "e-rickshaw": 309, "E3W_passenger": 141, "E3W_goods": 8, "ICE3W_passenger": 2187 }, "geometry": { "type": "Point", "coordinates": [ 87.527, 23.91 ] } },
{ "type": "Feature", "properties": { "RTO": "Bishnupur", "District": "Bankura", "Lat": 23.075, "Long": 87.317, "e-rickshaw": 71, "E3W_passenger": 9, "E3W_goods": 2, "ICE3W_passenger": 75 }, "geometry": { "type": "Point", "coordinates": [ 87.317, 23.075 ] } },
{ "type": "Feature", "properties": { "RTO": "Bolpur", "District": "Birbhum", "Lat": 23.67, "Long": 87.72, "e-rickshaw": 149, "E3W_passenger": 1, "E3W_goods": 6, "ICE3W_passenger": 49 }, "geometry": { "type": "Point", "coordinates": [ 87.72, 23.67 ] } },
{ "type": "Feature", "properties": { "RTO": "Chanchal", "District": "Maldah", "Lat": 25.39, "Long": 87.99, "e-rickshaw": 1251, "E3W_passenger": 154, "E3W_goods": 3, "ICE3W_passenger": 283 }, "geometry": { "type": "Point", "coordinates": [ 87.99, 25.39 ] } },
{ "type": "Feature", "properties": { "RTO": "Contai", "District": "Purba Medinipur", "Lat": 21.78, "Long": 87.75, "e-rickshaw": 72, "E3W_passenger": 16, "E3W_goods": 18, "ICE3W_passenger": 3452 }, "geometry": { "type": "Point", "coordinates": [ 87.75, 21.78 ] } },
{ "type": "Feature", "properties": { "RTO": "Cooch Behar", "District": "Koch Bihar", "Lat": 26.32419, "Long": 89.451, "e-rickshaw": 3075, "E3W_passenger": 569, "E3W_goods": 38, "ICE3W_passenger": 3656 }, "geometry": { "type": "Point", "coordinates": [ 89.451, 26.32419 ] } },
{ "type": "Feature", "properties": { "RTO": "Dakshin Dinajpur", "District": "Dakshin Dinajpur", "Lat": 25.383333, "Long": 88.566667, "e-rickshaw": 4038, "E3W_passenger": 11, "E3W_goods": 5, "ICE3W_passenger": 1818 }, "geometry": { "type": "Point", "coordinates": [ 88.566667, 25.383333 ] } },
{ "type": "Feature", "properties": { "RTO": "Darjeeling", "District": "Darjiling", "Lat": 27.0375, "Long": 88.263056, "e-rickshaw": 0, "E3W_passenger": 123, "E3W_goods": 0, "ICE3W_passenger": 4 }, "geometry": { "type": "Point", "coordinates": [ 88.263056, 27.0375 ] } },
{ "type": "Feature", "properties": { "RTO": "Diamond Harbour", "District": "South Twenty Four Parganas", "Lat": 22.191009, "Long": 88.190474, "e-rickshaw": 42, "E3W_passenger": 184, "E3W_goods": 12, "ICE3W_passenger": 1603 }, "geometry": { "type": "Point", "coordinates": [ 88.190474, 22.191009 ] } },
{ "type": "Feature", "properties": { "RTO": "Durgapur", "District": "Paschim Barddhaman", "Lat": 23.55, "Long": 87.32, "e-rickshaw": 1051, "E3W_passenger": 98, "E3W_goods": 25, "ICE3W_passenger": 1808 }, "geometry": { "type": "Point", "coordinates": [ 87.32, 23.55 ] } },
{ "type": "Feature", "properties": { "RTO": "Ghatal", "District": "Paschim Medinipur", "Lat": 22.67, "Long": 87.72, "e-rickshaw": 2, "E3W_passenger": 0, "E3W_goods": 4, "ICE3W_passenger": 31 }, "geometry": { "type": "Point", "coordinates": [ 87.72, 22.67 ] } },
{ "type": "Feature", "properties": { "RTO": "Haldia", "District": "Purba Medinipur", "Lat": 22.0667, "Long": 88.0698, "e-rickshaw": 0, "E3W_passenger": 0, "E3W_goods": 0, "ICE3W_passenger": 3 }, "geometry": { "type": "Point", "coordinates": [ 88.0698, 22.0667 ] } },
{ "type": "Feature", "properties": { "RTO": "Hoogly", "District": "Hugli", "Lat": 22.9, "Long": 88.39, "e-rickshaw": 1998, "E3W_passenger": 20, "E3W_goods": 38, "ICE3W_passenger": 5591 }, "geometry": { "type": "Point", "coordinates": [ 88.39, 22.9 ] } },
{ "type": "Feature", "properties": { "RTO": "Howra", "District": "Haora", "Lat": 22.58, "Long": 88.329444, "e-rickshaw": 1737, "E3W_passenger": 83, "E3W_goods": 139, "ICE3W_passenger": 1345 }, "geometry": { "type": "Point", "coordinates": [ 88.329444, 22.58 ] } },
{ "type": "Feature", "properties": { "RTO": "Islampur", "District": "Uttar Dinajpur", "Lat": 26.27, "Long": 88.2, "e-rickshaw": 104, "E3W_passenger": 0, "E3W_goods": 8, "ICE3W_passenger": 130 }, "geometry": { "type": "Point", "coordinates": [ 88.2, 26.27 ] } },
{ "type": "Feature", "properties": { "RTO": "Jalpaiguri", "District": "Jalpaiguri", "Lat": 26.52, "Long": 88.73, "e-rickshaw": 425, "E3W_passenger": 432, "E3W_goods": 62, "ICE3W_passenger": 369 }, "geometry": { "type": "Point", "coordinates": [ 88.73, 26.52 ] } },
{ "type": "Feature", "properties": { "RTO": "Jangipur", "District": "Murshidabad", "Lat": 24.4691, "Long": 88.1032, "e-rickshaw": 1895, "E3W_passenger": 5, "E3W_goods": 7, "ICE3W_passenger": 67 }, "geometry": { "type": "Point", "coordinates": [ 88.1032, 24.4691 ] } },
{ "type": "Feature", "properties": { "RTO": "Jhargram", "District": "Jhargram", "Lat": 22.45, "Long": 86.89, "e-rickshaw": 77, "E3W_passenger": 17, "E3W_goods": 10, "ICE3W_passenger": 199 }, "geometry": { "type": "Point", "coordinates": [ 86.89, 22.45 ] } },
{ "type": "Feature", "properties": { "RTO": "Kalimpong", "District": "Kalimpong", "Lat": 27.06, "Long": 88.47, "e-rickshaw": 0, "E3W_passenger": 0, "E3W_goods": 0, "ICE3W_passenger": 0 }, "geometry": { "type": "Point", "coordinates": [ 88.47, 27.06 ] } },
{ "type": "Feature", "properties": { "RTO": "Kalna", "District": "Barddhaman", "Lat": 23.22, "Long": 88.37, "e-rickshaw": 4, "E3W_passenger": 1, "E3W_goods": 3, "ICE3W_passenger": 768 }, "geometry": { "type": "Point", "coordinates": [ 88.37, 23.22 ] } },
{ "type": "Feature", "properties": { "RTO": "Kalyani", "District": "Nadia", "Lat": 22.975, "Long": 88.434444, "e-rickshaw": 182, "E3W_passenger": 44, "E3W_goods": 6, "ICE3W_passenger": 837 }, "geometry": { "type": "Point", "coordinates": [ 88.434444, 22.975 ] } },
{ "type": "Feature", "properties": { "RTO": "Kandi", "District": "Murshidabad", "Lat": 23.95, "Long": 88.03, "e-rickshaw": 151, "E3W_passenger": 4, "E3W_goods": 0, "ICE3W_passenger": 0 }, "geometry": { "type": "Point", "coordinates": [ 88.03, 23.95 ] } },
{ "type": "Feature", "properties": { "RTO": "Kasba", "District": "South Twenty Four Parganas", "Lat": 22.5167, "Long": 88.384, "e-rickshaw": 0, "E3W_passenger": 0, "E3W_goods": 3, "ICE3W_passenger": 402 }, "geometry": { "type": "Point", "coordinates": [ 88.384, 22.5167 ] } },
{ "type": "Feature", "properties": { "RTO": "Katwa", "District": "Barddhaman", "Lat": 23.65, "Long": 88.13, "e-rickshaw": 48, "E3W_passenger": 53, "E3W_goods": 16, "ICE3W_passenger": 93 }, "geometry": { "type": "Point", "coordinates": [ 88.13, 23.65 ] } },
{ "type": "Feature", "properties": { "RTO": "Kharagpur", "District": "Paschim Medinipur", "Lat": 22.330239, "Long": 87.323653, "e-rickshaw": 1169, "E3W_passenger": 35, "E3W_goods": 65, "ICE3W_passenger": 19 }, "geometry": { "type": "Point", "coordinates": [ 87.323653, 22.330239 ] } },
{ "type": "Feature", "properties": { "RTO": "Kolkata", "District": "Kolkata", "Lat": 22.5675, "Long": 88.37, "e-rickshaw": 3, "E3W_passenger": 259, "E3W_goods": 31, "ICE3W_passenger": 10174 }, "geometry": { "type": "Point", "coordinates": [ 88.37, 22.5675 ] } },
{ "type": "Feature", "properties": { "RTO": "Malda", "District": "Maldah", "Lat": 25.0119, "Long": 88.1433, "e-rickshaw": 6831, "E3W_passenger": 316, "E3W_goods": 12, "ICE3W_passenger": 2842 }, "geometry": { "type": "Point", "coordinates": [ 88.1433, 25.0119 ] } },
{ "type": "Feature", "properties": { "RTO": "Mathabhanga", "District": "Koch Bihar", "Lat": 26.33, "Long": 89.22, "e-rickshaw": 316, "E3W_passenger": 237, "E3W_goods": 24, "ICE3W_passenger": 53 }, "geometry": { "type": "Point", "coordinates": [ 89.22, 26.33 ] } },
{ "type": "Feature", "properties": { "RTO": "Murshidabad", "District": "Murshidabad", "Lat": 24.18, "Long": 88.27, "e-rickshaw": 11498, "E3W_passenger": 1146, "E3W_goods": 40, "ICE3W_passenger": 2716 }, "geometry": { "type": "Point", "coordinates": [ 88.27, 24.18 ] } },
{ "type": "Feature", "properties": { "RTO": "Nadia", "District": "Nadia", "Lat": 23.483333, "Long": 88.533333, "e-rickshaw": 936, "E3W_passenger": 318, "E3W_goods": 29, "ICE3W_passenger": 6398 }, "geometry": { "type": "Point", "coordinates": [ 88.533333, 23.483333 ] } },
{ "type": "Feature", "properties": { "RTO": "Paschim Bardhaman", "District": "Paschim Barddhaman", "Lat": 23.68, "Long": 86.99, "e-rickshaw": 891, "E3W_passenger": 289, "E3W_goods": 83, "ICE3W_passenger": 1096 }, "geometry": { "type": "Point", "coordinates": [ 86.99, 23.68 ] } },
{ "type": "Feature", "properties": { "RTO": "Paschim Midnapore", "District": "Paschim Medinipur", "Lat": 22.424, "Long": 87.319, "e-rickshaw": 335, "E3W_passenger": 2, "E3W_goods": 14, "ICE3W_passenger": 1435 }, "geometry": { "type": "Point", "coordinates": [ 87.319, 22.424 ] } },
{ "type": "Feature", "properties": { "RTO": "Purba Bardhaman", "District": "Barddhaman", "Lat": 23.233333, "Long": 87.866667, "e-rickshaw": 2213, "E3W_passenger": 83, "E3W_goods": 25, "ICE3W_passenger": 531 }, "geometry": { "type": "Point", "coordinates": [ 87.866667, 23.233333 ] } },
{ "type": "Feature", "properties": { "RTO": "Purulia", "District": "Puruliya", "Lat": 23.34, "Long": 86.36, "e-rickshaw": 4785, "E3W_passenger": 77, "E3W_goods": 19, "ICE3W_passenger": 1005 }, "geometry": { "type": "Point", "coordinates": [ 86.36, 23.34 ] } },
{ "type": "Feature", "properties": { "RTO": "Raghunathpur", "District": "Puruliya", "Lat": 23.55, "Long": 86.67, "e-rickshaw": 406, "E3W_passenger": 0, "E3W_goods": 0, "ICE3W_passenger": 0 }, "geometry": { "type": "Point", "coordinates": [ 86.67, 23.55 ] } },
{ "type": "Feature", "properties": { "RTO": "Rampurhat", "District": "Birbhum", "Lat": 24.17, "Long": 87.78, "e-rickshaw": 340, "E3W_passenger": 59, "E3W_goods": 1, "ICE3W_passenger": 457 }, "geometry": { "type": "Point", "coordinates": [ 87.78, 24.17 ] } },
{ "type": "Feature", "properties": { "RTO": "Salt Lake", "District": "North Twenty Four Parganas", "Lat": 22.58, "Long": 88.42, "e-rickshaw": 0, "E3W_passenger": 6, "E3W_goods": 0, "ICE3W_passenger": 548 }, "geometry": { "type": "Point", "coordinates": [ 88.42, 22.58 ] } },
{ "type": "Feature", "properties": { "RTO": "Siliguri", "District": "Jalpaiguri", "Lat": 26.71, "Long": 88.43, "e-rickshaw": 3945, "E3W_passenger": 206, "E3W_goods": 276, "ICE3W_passenger": 1466 }, "geometry": { "type": "Point", "coordinates": [ 88.43, 26.71 ] } },
{ "type": "Feature", "properties": { "RTO": "Srirampur", "District": "Hugli", "Lat": 22.75, "Long": 88.34, "e-rickshaw": 746, "E3W_passenger": 28, "E3W_goods": 27, "ICE3W_passenger": 457 }, "geometry": { "type": "Point", "coordinates": [ 88.34, 22.75 ] } },
{ "type": "Feature", "properties": { "RTO": "Tamluk", "District": "Purba Medinipur", "Lat": 22.3, "Long": 87.92, "e-rickshaw": 14, "E3W_passenger": 2, "E3W_goods": 21, "ICE3W_passenger": 983 }, "geometry": { "type": "Point", "coordinates": [ 87.92, 22.3 ] } },
{ "type": "Feature", "properties": { "RTO": "Tehatta", "District": "Nadia", "Lat": 23.7, "Long": 88.55, "e-rickshaw": 7, "E3W_passenger": 1, "E3W_goods": 0, "ICE3W_passenger": 0 }, "geometry": { "type": "Point", "coordinates": [ 88.55, 23.7 ] } },
{ "type": "Feature", "properties": { "RTO": "Uluberia", "District": "Haora", "Lat": 22.47, "Long": 88.11, "e-rickshaw": 1, "E3W_passenger": 0, "E3W_goods": 145, "ICE3W_passenger": 25 }, "geometry": { "type": "Point", "coordinates": [ 88.11, 22.47 ] } },
{ "type": "Feature", "properties": { "RTO": "Uttar Dinajpur", "District": "Uttar Dinajpur", "Lat": 25.62, "Long": 88.12, "e-rickshaw": 1165, "E3W_passenger": 171, "E3W_goods": 21, "ICE3W_passenger": 1044 }, "geometry": { "type": "Point", "coordinates": [ 88.12, 25.62 ] } }
]
}
